{
  "type": "FeatureCollection",
  "features": [
    {
      "type": "Feature",
      "geometry": {
        "type": "Point",
        "coordinates": [
          31.551143,
          2.200532
        ]
      },
      "properties": {
        "name": null,
        "type": "Airport",
        "Deg": 2.0,
        "Min": 12.0,
        "Sec": 0.0,
        "Lat": 2.2,
        "Deg1": 31.0,
        "Min1": 33.0,
        "Sec1": 0.0,
        "Long": 31.55,
        "F9": "Bugungu",
        "Category": "Air Field (Strip)"
      }
    },
    {
      "type": "Feature",
      "geometry": {
        "type": "Point",
        "coordinates": [
          31.333333,
          1.8
        ]
      },
      "properties": {
        "name": null,
        "type": "Airport",
        "Deg": 1.0,
        "Min": 48.0,
        "Sec": 0.0,
        "Lat": 1.8,
        "Deg1": 31.0,
        "Min1": 20.0,
        "Sec1": 0.0,
        "Long": 31.333333,
        "F9": "Butiaba",
        "Category": "Air Field (Strip)"
      }
    },
    {
      "type": "Feature",
      "geometry": {
        "type": "Point",
        "coordinates": [
          32.55,
          0.2
        ]
      },
      "properties": {
        "name": null,
        "type": "Airport",
        "Deg": 0.0,
        "Min": 12.0,
        "Sec": 0.0,
        "Lat": 0.2,
        "Deg1": 32.0,
        "Min1": 33.0,
        "Sec1": 0.0,
        "Long": 32.55,
        "F9": "Kajjansi",
        "Category": "Air Field (Strip)"
      }
    },
    {
      "type": "Feature",
      "geometry": {
        "type": "Point",
        "coordinates": [
          30.939114,
          1.476521
        ]
      },
      "properties": {
        "name": null,
        "type": "Airport",
        "Deg": 1.0,
        "Min": 28.0,
        "Sec": 0.0,
        "Lat": 1.466667,
        "Deg1": 30.0,
        "Min1": 56.0,
        "Sec1": 0.0,
        "Long": 30.933333,
        "F9": "Kaiso",
        "Category": "Air Field (Strip)"
      }
    },
    {
      "type": "Feature",
      "geometry": {
        "type": "Point",
        "coordinates": [
          30.733333,
          1.25
        ]
      },
      "properties": {
        "name": null,
        "type": "Airport",
        "Deg": 1.0,
        "Min": 15.0,
        "Sec": 0.0,
        "Lat": 1.25,
        "Deg1": 30.0,
        "Min1": 44.0,
        "Sec1": 0.0,
        "Long": 30.733333,
        "F9": "Massika",
        "Category": "Air Field (Strip)"
      }
    },
    {
      "type": "Feature",
      "geometry": {
        "type": "Point",
        "coordinates": [
          31.497432,
          2.325989
        ]
      },
      "properties": {
        "name": null,
        "type": "Airport",
        "Deg": 2.0,
        "Min": 20.0,
        "Sec": 0.0,
        "Lat": 2.333333,
        "Deg1": 31.0,
        "Min1": 30.0,
        "Sec1": 0.0,
        "Long": 31.5,
        "F9": "Pakuba",
        "Category": "Air Field (Strip)"
      }
    },
    {
      "type": "Feature",
      "geometry": {
        "type": "Point",
        "coordinates": [
          30.35,
          0.9
        ]
      },
      "properties": {
        "name": null,
        "type": "Airport",
        "Deg": 0.0,
        "Min": 54.0,
        "Sec": 0.0,
        "Lat": 0.9,
        "Deg1": 30.0,
        "Min1": 21.0,
        "Sec1": 0.0,
        "Long": 30.35,
        "F9": "Semliki air field",
        "Category": "Air Field (Strip)"
      }
    },
    {
      "type": "Feature",
      "geometry": {
        "type": "Point",
        "coordinates": [
          31.091105,
          1.553686
        ]
      },
      "properties": {
        "name": null,
        "type": "Airport",
        "Deg": 1.0,
        "Min": 33.0,
        "Sec": 0.0,
        "Lat": 1.55,
        "Deg1": 31.0,
        "Min1": 6.0,
        "Sec1": 0.0,
        "Long": 31.1,
        "F9": "Tonya",
        "Category": "Air Field (Strip)"
      }
    },
    {
      "type": "Feature",
      "geometry": {
        "type": "Point",
        "coordinates": [
          30.080768,
          0.164511
        ]
      },
      "properties": {
        "name": null,
        "type": "Airport",
        "Deg": 0.0,
        "Min": 0.0,
        "Sec": 0.0,
        "Lat": 0.0,
        "Deg1": 0.0,
        "Min1": 0.0,
        "Sec1": 0.0,
        "Long": 0.0,
        "F9": "Kasese",
        "Category": "Air Field (Strip)"
      }
    },
    {
      "type": "Feature",
      "geometry": {
        "type": "Point",
        "coordinates": [
          33.620978,
          1.726045
        ]
      },
      "properties": {
        "name": null,
        "type": "Airport",
        "Deg": 0.0,
        "Min": 0.0,
        "Sec": 0.0,
        "Lat": 0.0,
        "Deg1": 0.0,
        "Min1": 0.0,
        "Sec1": 0.0,
        "Long": 0.0,
        "F9": "Soroti",
        "Category": "Air Field (Strip)"
      }
    },
    {
      "type": "Feature",
      "geometry": {
        "type": "Point",
        "coordinates": [
          32.15,
          2.25
        ]
      },
      "properties": {
        "name": null,
        "type": "Airport",
        "Deg": 0.0,
        "Min": 0.0,
        "Sec": 0.0,
        "Lat": 0.0,
        "Deg1": 0.0,
        "Min1": 0.0,
        "Sec1": 0.0,
        "Long": 0.0,
        "F9": "Chobe",
        "Category": "Air Field (Strip)"
      }
    },
    {
      "type": "Feature",
      "geometry": {
        "type": "Point",
        "coordinates": [
          32.440437,
          0.036094
        ]
      },
      "properties": {
        "name": null,
        "type": "Airport",
        "Deg": 0.0,
        "Min": 0.0,
        "Sec": 0.0,
        "Lat": 0.0,
        "Deg1": 0.0,
        "Min1": 0.0,
        "Sec1": 0.0,
        "Long": 0.0,
        "F9": "Entebbe",
        "Category": "International Airport"
      }
    },
    {
      "type": "Feature",
      "geometry": {
        "type": "Point",
        "coordinates": [
          31.074749,
          1.44212
        ]
      },
      "properties": {
        "name": null,
        "type": "Airport",
        "Deg": 0.0,
        "Min": 0.0,
        "Sec": 0.0,
        "Lat": 0.0,
        "Deg1": 0.0,
        "Min1": 0.0,
        "Sec1": 0.0,
        "Long": 0.0,
        "F9": "Kabalega",
        "Category": "International Airport"
      }
    },
    {
      "type": "Feature",
      "geometry": {
        "type": "Point",
        "coordinates": [
          31.551143,
          2.200532
        ]
      },
      "properties": {
        "name": null,
        "type": "Airport",
        "Deg": 2.0,
        "Min": 12.0,
        "Sec": 0.0,
        "Lat": 2.2,
        "Deg1": 31.0,
        "Min1": 33.0,
        "Sec1": 0.0,
        "Long": 31.55,
        "F9": "Bugungu",
        "Category": "Air Field (Strip)"
      }
    },
    {
      "type": "Feature",
      "geometry": {
        "type": "Point",
        "coordinates": [
          31.333333,
          1.8
        ]
      },
      "properties": {
        "name": null,
        "type": "Airport",
        "Deg": 1.0,
        "Min": 48.0,
        "Sec": 0.0,
        "Lat": 1.8,
        "Deg1": 31.0,
        "Min1": 20.0,
        "Sec1": 0.0,
        "Long": 31.333333,
        "F9": "Butiaba",
        "Category": "Air Field (Strip)"
      }
    },
    {
      "type": "Feature",
      "geometry": {
        "type": "Point",
        "coordinates": [
          32.55,
          0.2
        ]
      },
      "properties": {
        "name": null,
        "type": "Airport",
        "Deg": 0.0,
        "Min": 12.0,
        "Sec": 0.0,
        "Lat": 0.2,
        "Deg1": 32.0,
        "Min1": 33.0,
        "Sec1": 0.0,
        "Long": 32.55,
        "F9": "Kajjansi",
        "Category": "Air Field (Strip)"
      }
    },
    {
      "type": "Feature",
      "geometry": {
        "type": "Point",
        "coordinates": [
          30.939114,
          1.476521
        ]
      },
      "properties": {
        "name": null,
        "type": "Airport",
        "Deg": 1.0,
        "Min": 28.0,
        "Sec": 0.0,
        "Lat": 1.466667,
        "Deg1": 30.0,
        "Min1": 56.0,
        "Sec1": 0.0,
        "Long": 30.933333,
        "F9": "Kaiso",
        "Category": "Air Field (Strip)"
      }
    },
    {
      "type": "Feature",
      "geometry": {
        "type": "Point",
        "coordinates": [
          30.733333,
          1.25
        ]
      },
      "properties": {
        "name": null,
        "type": "Airport",
        "Deg": 1.0,
        "Min": 15.0,
        "Sec": 0.0,
        "Lat": 1.25,
        "Deg1": 30.0,
        "Min1": 44.0,
        "Sec1": 0.0,
        "Long": 30.733333,
        "F9": "Massika",
        "Category": "Air Field (Strip)"
      }
    },
    {
      "type": "Feature",
      "geometry": {
        "type": "Point",
        "coordinates": [
          31.497432,
          2.325989
        ]
      },
      "properties": {
        "name": null,
        "type": "Airport",
        "Deg": 2.0,
        "Min": 20.0,
        "Sec": 0.0,
        "Lat": 2.333333,
        "Deg1": 31.0,
        "Min1": 30.0,
        "Sec1": 0.0,
        "Long": 31.5,
        "F9": "Pakuba",
        "Category": "Air Field (Strip)"
      }
    },
    {
      "type": "Feature",
      "geometry": {
        "type": "Point",
        "coordinates": [
          30.35,
          0.9
        ]
      },
      "properties": {
        "name": null,
        "type": "Airport",
        "Deg": 0.0,
        "Min": 54.0,
        "Sec": 0.0,
        "Lat": 0.9,
        "Deg1": 30.0,
        "Min1": 21.0,
        "Sec1": 0.0,
        "Long": 30.35,
        "F9": "Semliki air field",
        "Category": "Air Field (Strip)"
      }
    },
    {
      "type": "Feature",
      "geometry": {
        "type": "Point",
        "coordinates": [
          31.091105,
          1.553686
        ]
      },
      "properties": {
        "name": null,
        "type": "Airport",
        "Deg": 1.0,
        "Min": 33.0,
        "Sec": 0.0,
        "Lat": 1.55,
        "Deg1": 31.0,
        "Min1": 6.0,
        "Sec1": 0.0,
        "Long": 31.1,
        "F9": "Tonya",
        "Category": "Air Field (Strip)"
      }
    },
    {
      "type": "Feature",
      "geometry": {
        "type": "Point",
        "coordinates": [
          30.080768,
          0.164511
        ]
      },
      "properties": {
        "name": null,
        "type": "Airport",
        "Deg": 0.0,
        "Min": 0.0,
        "Sec": 0.0,
        "Lat": 0.0,
        "Deg1": 0.0,
        "Min1": 0.0,
        "Sec1": 0.0,
        "Long": 0.0,
        "F9": "Kasese",
        "Category": "Air Field (Strip)"
      }
    },
    {
      "type": "Feature",
      "geometry": {
        "type": "Point",
        "coordinates": [
          33.620978,
          1.726045
        ]
      },
      "properties": {
        "name": null,
        "type": "Airport",
        "Deg": 0.0,
        "Min": 0.0,
        "Sec": 0.0,
        "Lat": 0.0,
        "Deg1": 0.0,
        "Min1": 0.0,
        "Sec1": 0.0,
        "Long": 0.0,
        "F9": "Soroti",
        "Category": "Air Field (Strip)"
      }
    },
    {
      "type": "Feature",
      "geometry": {
        "type": "Point",
        "coordinates": [
          32.15,
          2.25
        ]
      },
      "properties": {
        "name": null,
        "type": "Airport",
        "Deg": 0.0,
        "Min": 0.0,
        "Sec": 0.0,
        "Lat": 0.0,
        "Deg1": 0.0,
        "Min1": 0.0,
        "Sec1": 0.0,
        "Long": 0.0,
        "F9": "Chobe",
        "Category": "Air Field (Strip)"
      }
    },
    {
      "type": "Feature",
      "geometry": {
        "type": "Point",
        "coordinates": [
          32.440437,
          0.036094
        ]
      },
      "properties": {
        "name": null,
        "type": "Airport",
        "Deg": 0.0,
        "Min": 0.0,
        "Sec": 0.0,
        "Lat": 0.0,
        "Deg1": 0.0,
        "Min1": 0.0,
        "Sec1": 0.0,
        "Long": 0.0,
        "F9": "Entebbe",
        "Category": "International Airport"
      }
    },
    {
      "type": "Feature",
      "geometry": {
        "type": "Point",
        "coordinates": [
          31.074749,
          1.44212
        ]
      },
      "properties": {
        "name": null,
        "type": "Airport",
        "Deg": 0.0,
        "Min": 0.0,
        "Sec": 0.0,
        "Lat": 0.0,
        "Deg1": 0.0,
        "Min1": 0.0,
        "Sec1": 0.0,
        "Long": 0.0,
        "F9": "Kabalega",
        "Category": "International Airport"
      }
    }
  ]
}